IONOSFERA-M 3           
1 64876U 25155A   26162.61471947  .00000038  00000+0  36940-4 0  9991
2 64876  98.6022 124.6601 0000683 167.2886 192.8309 14.21485550 45618
IONOSFERA-M 4           
1 64877U 25155B   26162.64956997  .00000039  00000+0  37307-4 0  9997
2 64877  98.6021 124.6115 0000844 118.7633 241.3629 14.21487740 45616
MICROCARB               
1 64899U 25156A   26162.64491770  .00000425  00000+0  74946-4 0  9994
2 64899  97.9832 239.8811 0015026 291.6302  68.3304 14.72319891 47151
CO3D 3                  
1 64900U 25156B   26162.65851543  .00003827  00000+0  17986-3 0  9995
2 64900  97.4333 241.4308 0001211 131.6269 228.5070 15.20195786 48690
CO3D 4                  
1 64901U 25156C   26162.65866740  .00000293  00000+0  16630-4 0  9991
2 64901  97.4332 241.4307 0000630  25.0477 335.0788 15.20199962 48690
CO3D 2                  
1 64902U 25156D   26162.69114762  .00004816  00000+0  22548-3 0  9995
2 64902  97.4332 241.3620 0001467 110.6797 249.4595 15.20196523 48697
CO3D 1                  
1 64903U 25156E   26162.69130286  .00005114  00000+0  23923-3 0  9995
2 64903  97.4331 241.3623 0001246 115.1017 245.0348 15.20198900 48699
PRSC-S1                 
1 65055U 25164A   26162.56231178  .00004799  00000+0  33152-3 0  9994
2 65055  41.1313 319.4902 0007323 309.7678  50.2491 15.06406931 47589
SENTINEL-6B             
1 66514U 25264A   26162.30821273 -.00000031  00000+0  13148-3 0  9998
2 66514  66.0388 147.3891 0008038 269.2334  90.7760 12.80929900 26418
CAS500-3                
1 66655U 25274F   26162.70225794  .00001100  00000+0  12477-3 0  9996
2 66655  97.7448  90.8782 0006482 124.5939 235.5890 14.88308003 29330
CSG-3                   
1 67304U 26001A   26162.52814273  .00000252  00000+0  38257-4 0  9995
2 67304  97.8887 346.2120 0001338  93.0416 267.0951 14.82149802 23627
PRSC-E03                
1 68835U 26092A   26162.35594559  .00002041  00000+0  14230-3 0  9990
2 68835  37.9997 124.0651 0004711 322.0464  37.9965 15.06639057  7074
CAS500-2                
1 69013U 26100AK  26162.69018330  .00005664  00000+0  26172-3 0  9996
2 69013  97.4088  60.6400 0011138  51.6934 308.5301 15.20525114  5972
